satname,norad_id,inclination_deg,eccentricity,mean_motion_rev_per_day,perigee_km,apogee_km,l1,l2
STARLINK-1234,45190,53.0342,0.0001612,15.83109163,320.5741659496034,322.73417862354836,1 45190U 20012N   26183.75002315  .00182416  00000+0  81851-3 0  9994,2 45190  53.0342 115.5186 0001612 163.4994 247.6575 15.83109163  5908
STARLINK-1269,45197,53.154,0.000282,15.37127702,452.6810923023613,456.53476044083436,1 45197U 20012V   26183.51518434  .00040858  00000+0  11124-2 0  9997,2 45197  53.1540 224.1875 0002820  13.9225 346.1856 15.37127702352524
STARLINK-1154,45198,53.04,0.0004387,15.65706953,368.24540105678716,374.1672749015297,1 45198U 20012W   26183.69638100  .00042565  00000+0  41669-3 0  9995,2 45198  53.0400 172.7672 0004387  52.5642 307.5772 15.65706953353200
STARLINK-1199,45201,53.1532,0.0005598,15.37028931,451.0755080643139,458.72577700889815,1 45201U 20012Z   26183.35635344  .00037759  00000+0  10322-2 0  9990,2 45201  53.1532 209.2035 0005598   6.8137 353.2942 15.37028931352744
STARLINK-1209,45206,53.0363,0.0001343,15.7319423,348.87106570676406,350.67818276903563,1 45206U 20012AE  26183.59064480  .00068831  00000+0  49086-3 0  9993,2 45206  53.0363 132.7073 0001343 132.7295 227.3836 15.73194230352862
STARLINK-1231,45212,53.0368,0.0002385,15.29398957,475.97278814735364,479.24297845668843,1 45212U 20012AL  26183.45906785  .00033488  00000+0  11659-2 0  9992,2 45212  53.0368 204.9929 0002385  70.9764 289.1493 15.29398957352742
STARLINK-1271,45217,53.1538,0.0005123,15.37226377,450.8152605825935,457.81579144074476,1 45217U 20012AR  26183.48095426  .00048352  00000+0  13088-2 0  9995,2 45217  53.1538 208.7107 0005123  11.4107 348.7011 15.37226377352766
STARLINK-1191,45222,53.1531,0.0003586,15.41490918,439.2627732497258,444.1539663489457,1 45222U 20012AW  26183.71976765  .00046043  00000+0  10849-2 0  9998,2 45222  53.1531 179.8592 0003586 355.7635   4.3340 15.41490918353199
STARLINK-1212,45223,53.0377,0.0001506,15.7196694,352.26222977362886,354.28973136337663,1 45223U 20012AX  26183.72758306  .00066777  00000+0  50193-3 0  9992,2 45223  53.0377 147.5481 0001506 116.4777 243.6395 15.71966940353627
STARLINK-1215,45225,53.1538,0.0005419,15.37360585,450.21559155259274,457.62017263380585,1 45225U 20012AZ  26183.28300338  .00035885  00000+0  97136-3 0  9997,2 45225  53.1538 183.8804 0005419  13.1270 346.9874 15.37360585353050
STARLINK-1221,45227,53.0641,0.0002806,15.46214595,425.9018123557926,429.7213106885192,1 45227U 20012BB  26183.75363875  .00036625  00000+0  73850-3 0  9996,2 45227  53.0641  82.7685 0002806  49.2547 310.8702 15.46214595354481
STARLINK-1222,45228,53.0517,0.0003831,15.56906857,394.0198820051928,399.2106972094898,1 45228U 20012BC  26183.61494057  .00028476  00000+0  39405-3 0  9992,2 45228  53.0517 148.8138 0003831  70.6288 289.5137 15.56906857353483
STARLINK-1226,45229,53.1529,0.0005369,15.46801428,422.4368807106921,429.7432597386987,1 45229U 20012BD  26183.68469731  .00049288  00000+0  96920-3 0  9990,2 45229  53.1529 176.4176 0005369  15.9293 344.1883 15.46801428353138
STARLINK-1227,45230,53.1516,0.0005205,15.46904024,422.2477701297794,429.3306573182663,1 45230U 20012BE  26183.69300736  .00052286  00000+0  10236-2 0  9999,2 45230  53.1516 176.4636 0005205  11.2275 348.8848 15.46904024353256
STARLINK-1246,45235,53.1529,0.0004795,15.37280317,450.87961626946253,457.43178496935525,1 45235U 20012BK  26183.52039449  .00022782  00000+0  62324-3 0  9990,2 45235  53.1529 223.7761 0004795 342.0322  18.0512 15.37280317352582
STARLINK-1270,45237,53.0382,0.0001721,15.70932748,355.0709989112129,357.38896802692216,1 45237U 20012BM  26183.20993738  .00066936  00000+0  52543-3 0  9998,2 45237  53.0382 151.9638 0001721 121.0741 239.0445 15.70932748353514
STARLINK-1279,45360,53.0352,0.0004033,15.84133531,316.0647538084713,321.4664754574351,1 45360U 20019A   26183.75002315  .00118463  00000+0  51107-3 0  9992,2 45360  53.0352 250.0441 0004033   7.8217 293.9624 15.84133531  6015
STARLINK-1301,45361,53.0303,0.0005773,15.85828797,310.128696239045,317.8554284544307,1 45361U 20019B   26183.75002315  .00129158  00000+0  51249-3 0  9993,2 45361  53.0303 252.0904 0005773   5.4728 346.2823 15.85828797  6021
STARLINK-1262,45366,53.155,0.0002347,15.3622268,455.68693314243137,458.8954831433348,1 45366U 20019G   26183.18259275  .00046550  00000+0  13024-2 0  9996,2 45366  53.1550 351.9876 0002347 182.9128 177.1862 15.36222680347305
STARLINK-1273,45367,53.0435,5.47e-05,15.60719671,385.2070736957712,385.9470240127148,1 45367U 20019H   26183.76085399  .00101139  00000+0  11864-2 0  9990,2 45367  53.0435 320.4503 0000547 147.7331 212.3715 15.60719671347778
STARLINK-1277,45369,53.0416,0.000143,15.69587619,359.11341615216315,361.04054535065825,1 45369U 20019K   26183.07250604  .00070042  00000+0  58098-3 0  9998,2 45369  53.0416 316.3596 0001430   7.5199 352.5838 15.69587619347779
STARLINK-1281,45370,53.1577,0.0002537,15.37028512,453.16834238016327,456.63542631008113,1 45370U 20019L   26183.18094237  .00046510  00000+0  12680-2 0  9999,2 45370  53.1577 351.4874 0002537 154.9021 205.2107 15.37028512347319
STARLINK-1300,45374,53.1595,0.0002274,15.37637842,451.54315999639675,454.6500050297227,1 45374U 20019Q   26183.18404380  .00047365  00000+0  12659-2 0  9992,2 45374  53.1595 351.2829 0002274 175.0841 185.0186 15.37637842347317
STARLINK-1302,45375,53.0459,0.0001855,15.69954607,357.7771258027542,360.27661359841204,1 45375U 20019R   26183.74425198  .00057878  00000+0  47436-3 0  9997,2 45375  53.0459 308.8502 0001855 119.6325 240.4876 15.69954607347933
STARLINK-1304,45376,53.0421,0.0001018,15.65779333,370.31127681800353,371.6854007729826,1 45376U 20019S   26183.74730925  .00046914  00000+0  45731-3 0  9990,2 45376  53.0421 310.8880 0001018 182.4232 177.6777 15.65779333347906
STARLINK-1305,45377,53.0379,0.0005507,15.7484764,341.36230722433265,348.767241658702,1 45377U 20019T   26183.69112743  .00074280  00000+0  49237-3 0  9999,2 45377  53.0379 288.1149 0005507 340.7997  19.2813 15.74847640348223
STARLINK-1319,45379,53.0356,0.000248,15.8219454,322.57371136551046,325.8980883238346,1 45379U 20019V   26183.68225914  .00105647  00000+0  50057-3 0  9999,2 45379  53.0356 278.6527 0002480   4.1601 355.9441 15.82194540348358
STARLINK-1266,45383,53.0433,0.0002813,15.6821073,362.123936106972,365.9170739192923,1 45383U 20019Z   26183.59635558  .00050783  00000+0  44811-3 0  9994,2 45383  53.0433 296.1396 0002813 337.5570  22.5322 15.68210730348096
STARLINK-1267,45384,53.0415,0.0001453,15.72557157,350.61374251557663,352.5694016386233,1 45384U 20019AA  26183.66602595  .00064886  00000+0  47592-3 0  9996,2 45384  53.0415 286.7191 0001453  32.2914 327.8192 15.72557157348239
STARLINK-1272,45386,53.0384,0.0002076,15.77241661,336.8655068897815,339.6541548539599,1 45386U 20019AC  26183.42866403  .00091234  00000+0  54290-3 0  9992,2 45386  53.0384 265.8814 0002076  35.4381 324.6776 15.77241661348509
STARLINK-1274,45387,53.017,0.0005491,15.66706653,364.6304187328924,372.03939418056234,1 45387U 20019AD  26183.75002315  .00139069  00000+0  12806-2 0  9998,2 45387  53.0170 265.0478 0005491 287.4844 235.0112 15.66706653  5973
STARLINK-1280,45388,53.0322,0.000583,15.88662122,302.1360342007865,309.929776310315,1 45388U 20019AE  26183.75002315  .00188646  00000+0  64565-3 0  9994,2 45388  53.0322 269.5801 0005830 359.5957 138.8452 15.88662122  6025
STARLINK-1283,45389,53.0369,0.0003538,15.74715858,343.06106056096905,347.818663548559,1 45389U 20019AF  26183.50618132  .00048555  00000+0  32629-3 0  9998,2 45389  53.0369 264.5409 0003538 335.0960  24.9887 15.74715858348534
STARLINK-1284,45390,53.0397,0.0003419,15.72987136,348.0646519896618,352.66560174401275,1 45390U 20019AG  26183.67804242  .00066268  00000+0  47699-3 0  9991,2 45390  53.0397 287.8909 0003419  55.2765 304.8575 15.72987136348219
STARLINK-1297,45395,53.0401,0.0001805,15.7586314,340.9631209090967,343.389153951709,1 45395U 20019AM  26183.74803959  .00035668  00000+0  22951-3 0  9992,2 45395  53.0401 286.4850 0001805  22.3072 337.8025 15.75863140347422
STARLINK-1307,45397,53.0529,0.0001061,15.58359067,391.6874251993004,393.1241343771717,1 45397U 20019AP  26183.58317572  .00031837  00000+0  41648-3 0  9995,2 45397  53.0529 295.8419 0001061 321.6073  38.4863 15.58359067347928
STARLINK-1255,45399,53.0317,9.13e-05,15.68137384,363.6151577512437,364.84631409982376,1 45399U 20019AR  26183.60131438  .00042774  00000+0  37977-3 0  9997,2 45399  53.0317 261.8656 0000913 244.3105 115.7816 15.68137384348388
STARLINK-1260,45404,53.1559,0.000189,15.40304144,443.921345026416,446.50057055446086,1 45404U 20019AW  26183.75861057  .00052581  00000+0  12862-2 0  9999,2 45404  53.1559 310.9310 0001890 194.6943 165.4008 15.40304144347642
STARLINK-1263,45405,53.1571,0.0001398,15.37322179,453.07653186517837,454.9868062250425,1 45405U 20019AX  26183.64688280  .00049066  00000+0  13241-2 0  9999,2 45405  53.1571 313.2419 0001398 242.6829 117.4032 15.37322179347607
STARLINK-1265,45406,53.1565,4.77e-05,15.40711414,443.68303749104507,444.33387016734105,1 45406U 20019AY  26183.61543973  .00047462  00000+0  11472-2 0  9998,2 45406  53.1565 311.5322 0000477 248.3162 111.7793 15.40711414347626
STARLINK-1278,45408,53.0398,0.000235,15.76869843,337.73698315087677,340.8941858655962,1 45408U 20019BA  26183.44138463  .00089802  00000+0  54339-3 0  9999,2 45408  53.0398 286.7590 0002350  29.8382 330.2771 15.76869843347936
STARLINK-1296,45412,53.1529,0.0001309,15.40886294,442.59931505841723,444.3852176003429,1 45412U 20019BE  26183.65193733  .00036742  00000+0  88640-3 0  9995,2 45412  53.1529 311.0161 0001309 192.8178 167.2794 15.40886294347631
STARLINK-1309,45414,53.0587,0.0002193,15.75456515,341.85841040048035,344.80644689188466,1 45414U 20019BG  26183.73438338  .00073307  00000+0  47366-3 0  9997,2 45414  53.0587 279.5203 0002193  31.5141 328.6009 15.75456515348047
